{
  "schema": "int-temerity-real-tle-snapshot/v1",
  "source": "celestrak",
  "group": "STARLINK",
  "format": "celestrak-gp-json",
  "source_url": "https://celestrak.org/NORAD/elements/gp.php?NAME=STARLINK&FORMAT=JSON",
  "downloaded_at": "2026-07-01T09:46:17.455Z",
  "generated_at": "2026-07-01T09:46:17.588Z",
  "fingerprint": "ee699b79",
  "shell_id": "starlink-real-53.2deg-545km",
  "catalog_count": 10658,
  "shell_count": 1056,
  "selected_count": 658,
  "mean_altitude_km": 545.46,
  "mean_inclination_deg": 53.1605,
  "mean_mean_motion_rev_per_day": 15.09305652,
  "layout": {
    "planes": 47,
    "satellites_per_plane": 14,
    "selection_strategy": "target-shell-raan-clusters-even-slot-sampling",
    "raan_cluster_threshold_deg": 1.5,
    "target_inclination_deg": 53,
    "target_altitude_km": 550,
    "selected_shell_key": "53.0deg-550km",
    "target_shell_distance": 21.03
  },
  "satellites": [
    {
      "satellite_id": "P09-S03",
      "norad_id": 52366,
      "satellite_name": "STARLINK-3808",
      "cospar_id": "2022-045AM",
      "shell_id": "starlink-real-53.2deg-545km",
      "plane_id": 8,
      "slot_id": 2,
      "epoch": "2026-06-25T16:18:34.111008",
      "inclination": 53.1607,
      "raan": 64.19209999999998,
      "eccentricity": 0.0001249,
      "argument_of_perigee": 97.7142,
      "mean_anomaly": 262.3991,
      "mean_motion": 15.08834595,
      "bstar": -0.00016212,
      "status": "active",
      "raw_omm": {
        "OBJECT_NAME": "STARLINK-3808",
        "OBJECT_ID": "2022-045AM",
        "EPOCH": "2026-06-25T16:18:34.111008",
        "MEAN_MOTION": 15.08834595,
        "ECCENTRICITY": 0.0001249,
        "INCLINATION": 53.1607,
        "RA_OF_ASC_NODE": 64.1921,
        "ARG_OF_PERICENTER": 97.7142,
        "MEAN_ANOMALY": 262.3991,
        "EPHEMERIS_TYPE": 0,
        "CLASSIFICATION_TYPE": "U",
        "NORAD_CAT_ID": 52366,
        "ELEMENT_SET_NO": 999,
        "REV_AT_EPOCH": 23222,
        "BSTAR": -0.00016212,
        "MEAN_MOTION_DOT": -0.00002867,
        "MEAN_MOTION_DDOT": 0
      },
      "source": "celestrak",
      "source_url": "https://celestrak.org/NORAD/elements/gp.php?NAME=STARLINK&FORMAT=JSON",
      "catalog_fingerprint": "ee699b79"
    },
    {
      "satellite_id": "P09-S04",
      "norad_id": 52369,
      "satellite_name": "STARLINK-3841",
      "cospar_id": "2022-045AQ",
      "shell_id": "starlink-real-53.2deg-545km",
      "plane_id": 8,
      "slot_id": 3,
      "epoch": "2026-06-25T16:23:52.253088",
      "inclination": 53.161,
      "raan": 64.17579999999998,
      "eccentricity": 0.0001265,
      "argument_of_perigee": 89.31900000000002,
      "mean_anomaly": 270.7946999999999,
      "mean_motion": 15.08830712,
      "bstar": 0.000015909,
      "status": "active",
      "raw_omm": {
        "OBJECT_NAME": "STARLINK-3841",
        "OBJECT_ID": "2022-045AQ",
        "EPOCH": "2026-06-25T16:23:52.253088",
        "MEAN_MOTION": 15.08830712,
        "ECCENTRICITY": 0.0001265,
        "INCLINATION": 53.161,
        "RA_OF_ASC_NODE": 64.1758,
        "ARG_OF_PERICENTER": 89.319,
        "MEAN_ANOMALY": 270.7947,
        "EPHEMERIS_TYPE": 0,
        "CLASSIFICATION_TYPE": "U",
        "NORAD_CAT_ID": 52369,
        "ELEMENT_SET_NO": 999,
        "REV_AT_EPOCH": 23222,
        "BSTAR": 0.000015909,
        "MEAN_MOTION_DOT": -3.5e-7,
        "MEAN_MOTION_DDOT": 0
      },
      "source": "celestrak",
      "source_url": "https://celestrak.org/NORAD/elements/gp.php?NAME=STARLINK&FORMAT=JSON",
      "catalog_fingerprint": "ee699b79"
    },
    {
      "satellite_id": "P09-S05",
      "norad_id": 52375,
      "satellite_name": "STARLINK-3785",
      "cospar_id": "2022-045AW",
      "shell_id": "starlink-real-53.2deg-545km",
      "plane_id": 8,
      "slot_id": 4,
      "epoch": "2026-06-25T20:33:06.271776",
      "inclination": 53.1627,
      "raan": 63.36239999999998,
      "eccentricity": 0.0001371,
      "argument_of_perigee": 70.78679999999997,
      "mean_anomaly": 289.3272999999999,
      "mean_motion": 15.11344586,
      "bstar": 0.010369,
      "status": "active",
      "raw_omm": {
        "OBJECT_NAME": "STARLINK-3785",
        "OBJECT_ID": "2022-045AW",
        "EPOCH": "2026-06-25T20:33:06.271776",
        "MEAN_MOTION": 15.11344586,
        "ECCENTRICITY": 0.0001371,
        "INCLINATION": 53.1627,
        "RA_OF_ASC_NODE": 63.3624,
        "ARG_OF_PERICENTER": 70.7868,
        "MEAN_ANOMALY": 289.3273,
        "EPHEMERIS_TYPE": 0,
        "CLASSIFICATION_TYPE": "U",
        "NORAD_CAT_ID": 52375,
        "ELEMENT_SET_NO": 999,
        "REV_AT_EPOCH": 23225,
        "BSTAR": 0.010369,
        "MEAN_MOTION_DOT": 0.00181082,
        "MEAN_MOTION_DDOT": 0
      },
      "source": "celestrak",
      "source_url": "https://celestrak.org/NORAD/elements/gp.php?NAME=STARLINK&FORMAT=JSON",
      "catalog_fingerprint": "ee699b79"
    },
    {
      "satellite_id": "P09-S06",
      "norad_id": 52368,
      "satellite_name": "STARLINK-3834",
      "cospar_id": "2022-045AP",
      "shell_id": "starlink-real-53.2deg-545km",
      "plane_id": 8,
      "slot_id": 5,
      "epoch": "2026-06-25T20:48:48.256416",
      "inclination": 53.1602,
      "raan": 63.348599999999976,
      "eccentricity": 0.0001332,
      "argument_of_perigee": 95.33350000000002,
      "mean_anomaly": 264.7808,
      "mean_motion": 15.08842187,
      "bstar": 0.00010443,
      "status": "active",
      "raw_omm": {
        "OBJECT_NAME": "STARLINK-3834",
        "OBJECT_ID": "2022-045AP",
        "EPOCH": "2026-06-25T20:48:48.256416",
        "MEAN_MOTION": 15.08842187,
        "ECCENTRICITY": 0.0001332,
        "INCLINATION": 53.1602,
        "RA_OF_ASC_NODE": 63.3486,
        "ARG_OF_PERICENTER": 95.3335,
        "MEAN_ANOMALY": 264.7808,
        "EPHEMERIS_TYPE": 0,
        "CLASSIFICATION_TYPE": "U",
        "NORAD_CAT_ID": 52368,
        "ELEMENT_SET_NO": 999,
        "REV_AT_EPOCH": 23224,
        "BSTAR": 0.00010443,
        "MEAN_MOTION_DOT": 0.00001374,
        "MEAN_MOTION_DDOT": 0
      },
      "source": "celestrak",
      "source_url": "https://celestrak.org/NORAD/elements/gp.php?NAME=STARLINK&FORMAT=JSON",
      "catalog_fingerprint": "ee699b79"
    },
    {
      "satellite_id": "P09-S07",
      "norad_id": 52364,
      "satellite_name": "STARLINK-3820",
      "cospar_id": "2022-045AK",
      "shell_id": "starlink-real-53.2deg-545km",
      "plane_id": 8,
      "slot_id": 6,
      "epoch": "2026-06-25T16:13:15.267360",
      "inclination": 53.1596,
      "raan": 64.12270000000001,
      "eccentricity": 0.0001365,
      "argument_of_perigee": 86.30740000000003,
      "mean_anomaly": 273.80729999999994,
      "mean_motion": 15.08836246,
      "bstar": 0.00012665,
      "status": "active",
      "raw_omm": {
        "OBJECT_NAME": "STARLINK-3820",
        "OBJECT_ID": "2022-045AK",
        "EPOCH": "2026-06-25T16:13:15.267360",
        "MEAN_MOTION": 15.08836246,
        "ECCENTRICITY": 0.0001365,
        "INCLINATION": 53.1596,
        "RA_OF_ASC_NODE": 64.1227,
        "ARG_OF_PERICENTER": 86.3074,
        "MEAN_ANOMALY": 273.8073,
        "EPHEMERIS_TYPE": 0,
        "CLASSIFICATION_TYPE": "U",
        "NORAD_CAT_ID": 52364,
        "ELEMENT_SET_NO": 999,
        "REV_AT_EPOCH": 23222,
        "BSTAR": 0.00012665,
        "MEAN_MOTION_DOT": 0.00001728,
        "MEAN_MOTION_DDOT": 0
      },
      "source": "celestrak",
      "source_url": "https://celestrak.org/NORAD/elements/gp.php?NAME=STARLINK&FORMAT=JSON",
      "catalog_fingerprint": "ee699b79"
    },
    {
      "satellite_id": "P09-S08",
      "norad_id": 52367,
      "satellite_name": "STARLINK-3817",
      "cospar_id": "2022-045AN",
      "shell_id": "starlink-real-53.2deg-545km",
      "plane_id": 8,
      "slot_id": 7,
      "epoch": "2026-06-25T16:29:09.957120",
      "inclination": 53.1607,
      "raan": 64.15899999999999,
      "eccentricity": 0.0001445,
      "argument_of_perigee": 99.37040000000002,
      "mean_anomaly": 260.7451,
      "mean_motion": 15.08824895,
      "bstar": -0.000044546,
      "status": "active",
      "raw_omm": {
        "OBJECT_NAME": "STARLINK-3817",
        "OBJECT_ID": "2022-045AN",
        "EPOCH": "2026-06-25T16:29:09.957120",
        "MEAN_MOTION": 15.08824895,
        "ECCENTRICITY": 0.0001445,
        "INCLINATION": 53.1607,
        "RA_OF_ASC_NODE": 64.159,
        "ARG_OF_PERICENTER": 99.3704,
        "MEAN_ANOMALY": 260.7451,
        "EPHEMERIS_TYPE": 0,
        "CLASSIFICATION_TYPE": "U",
        "NORAD_CAT_ID": 52367,
        "ELEMENT_SET_NO": 999,
        "REV_AT_EPOCH": 23222,
        "BSTAR": -0.000044546,
        "MEAN_MOTION_DOT": -0.00000997,
        "MEAN_MOTION_DDOT": 0
      },
      "source": "celestrak",
      "source_url": "https://celestrak.org/NORAD/elements/gp.php?NAME=STARLINK&FORMAT=JSON",
      "catalog_fingerprint": "ee699b79"
    }
  ]
}