[
  {
    "name": "STARLINK-3820",
    "noradId": "52364",
    "line1": "1 52364U 22045AK  26176.67587115  .00001728  00000+0  12665-3 0  9995",
    "line2": "2 52364  53.1596  64.1227 0001365  86.3074 273.8073 15.08836246232220"
  },
  {
    "name": "STARLINK-3808",
    "noradId": "52366",
    "line1": "1 52366U 22045AM  26176.67956147 -.00002867  00000+0 -16212-3 0  9991",
    "line2": "2 52366  53.1607  64.1921 0001249  97.7142 262.3991 15.08834595232226"
  },
  {
    "name": "STARLINK-3817",
    "noradId": "52367",
    "line1": "1 52367U 22045AN  26176.68692080 -.00000997  00000+0 -44546-4 0  9990",
    "line2": "2 52367  53.1607  64.1590 0001445  99.3704 260.7451 15.08824895232224"
  },
  {
    "name": "STARLINK-3834",
    "noradId": "52368",
    "line1": "1 52368U 22045AP  26176.86722519  .00001374  00000+0  10443-3 0  9998",
    "line2": "2 52368  53.1602  63.3486 0001332  95.3335 264.7808 15.08842187232242"
  },
  {
    "name": "STARLINK-3841",
    "noradId": "52369",
    "line1": "1 52369U 22045AQ  26176.68324367 -.00000035  00000+0  15909-4 0  9995",
    "line2": "2 52369  53.1610  64.1758 0001265  89.3190 270.7947 15.08830712232220"
  },
  {
    "name": "STARLINK-3785",
    "noradId": "52375",
    "line1": "1 52375U 22045AW  26176.85632259  .00181082  00000+0  10369-1 0  9996",
    "line2": "2 52375  53.1627  63.3624 0001371  70.7868 289.3273 15.11344586232256"
  }
]